{
  "type": "FeatureCollection",
  "generator": "overpass-turbo (CH)",
  "copyright": "The data included in this document is from www.openstreetmap.org. The data is made available under ODbL.",
  "timestamp": "112006",
  "features": [
    {
      "type": "Feature",
      "properties": {
        "@id": "way/186807413",
        "electrified": "no",
        "gauge": "1435",
        "operator": "SBB",
        "railway": "rail",
        "service": "spur",
        "tracks": "1"
      },
      "geometry": {
        "type": "LineString",
        "coordinates": [
          [
            7.0451848,
            46.8873762
          ],
          [
            7.0453888,
            46.8875616
          ],
          [
            7.0455228,
            46.8876777
          ],
          [
            7.0458286,
            46.8879181
          ],
          [
            7.0466445,
            46.8885315
          ],
          [
            7.0467678,
            46.888616
          ],
          [
            7.0468329,
            46.8886569
          ],
          [
            7.0469006,
            46.8886967
          ],
          [
            7.0469665,
            46.8887334
          ],
          [
            7.0470346,
            46.888768
          ],
          [
            7.0471059,
            46.8888007
          ],
          [
            7.0471792,
            46.8888321
          ],
          [
            7.047261,
            46.8888652
          ],
          [
            7.0473446,
            46.888897
          ],
          [
            7.0474377,
            46.8889294
          ],
          [
            7.0475309,
            46.888961
          ],
          [
            7.0481157,
            46.8891523
          ],
          [
            7.0500717,
            46.8897942
          ],
          [
            7.0501363,
            46.8898156
          ]
        ]
      },
      "id": "way/186807413"
    },
    {
      "type": "Feature",
      "properties": {
        "@id": "way/186807414",
        "electrified": "contact_line",
        "frequency": "16.7",
        "gauge": "1435",
        "operator": "SBB",
        "railway": "rail",
        "service": "yard",
        "tracks": "1",
        "voltage": "15000"
      },
      "geometry": {
        "type": "LineString",
        "coordinates": [
          [
            7.0428752,
            46.8858921
          ],
          [
            7.0430742,
            46.8860117
          ],
          [
            7.0432636,
            46.8861139
          ],
          [
            7.0439269,
            46.8864663
          ],
          [
            7.0440845,
            46.8865637
          ],
          [
            7.0443492,
            46.8867381
          ],
          [
            7.0447469,
            46.8870001
          ],
          [
            7.0449828,
            46.8871744
          ],
          [
            7.0450485,
            46.88724
          ],
          [
            7.0451848,
            46.8873762
          ],
          [
            7.0455012,
            46.8877083
          ],
          [
            7.0457858,
            46.8879584
          ]
        ]
      },
      "id": "way/186807414"
    },
    {
      "type": "Feature",
      "properties": {
        "@id": "way/186807415",
        "covered": "yes",
        "electrified": "no",
        "gauge": "1435",
        "operator": "SBB",
        "railway": "rail",
        "service": "spur",
        "tracks": "1"
      },
      "geometry": {
        "type": "LineString",
        "coordinates": [
          [
            7.0427503,
            46.8853917
          ],
          [
            7.0427185,
            46.8853745
          ]
        ]
      },
      "id": "way/186807415"
    },
    {
      "type": "Feature",
      "properties": {
        "@id": "way/186807416",
        "electrified": "contact_line",
        "frequency": "16.7",
        "gauge": "1435",
        "maxspeed": "125",
        "operator": "SBB",
        "passenger_lines": "1",
        "railway": "rail",
        "railway:etcs": "1",
        "ref": "251",
        "tracks": "1",
        "usage": "branch",
        "voltage": "15000"
      },
      "geometry": {
        "type": "LineString",
        "coordinates": [
          [
            7.0719203,
            46.9072928
          ],
          [
            7.0718121,
            46.9072388
          ],
          [
            7.071697,
            46.9071788
          ],
          [
            7.0715753,
            46.9071131
          ],
          [
            7.0714485,
            46.9070426
          ],
          [
            7.0712762,
            46.9069412
          ],
          [
            7.0711065,
            46.9068362
          ],
          [
            7.0709541,
            46.9067358
          ],
          [
            7.0708047,
            46.9066344
          ],
          [
            7.0706474,
            46.906521
          ],
          [
            7.0703433,
            46.906296
          ],
          [
            7.0683258,
            46.9047896
          ],
          [
            7.0667766,
            46.9036331
          ],
          [
            7.0645283,
            46.9019526
          ],
          [
            7.0583857,
            46.8973664
          ]
        ]
      },
      "id": "way/186807416"
    },
    {
      "type": "Feature",
      "properties": {
        "@id": "way/186807417",
        "electrified": "no",
        "gauge": "1435",
        "operator": "SBB",
        "railway": "rail",
        "service": "spur",
        "tracks": "1"
      },
      "geometry": {
        "type": "LineString",
        "coordinates": [
          [
            7.0510813,
            46.8921461
          ],
          [
            7.0511716,
            46.8922322
          ],
          [
            7.0512189,
            46.8922734
          ],
          [
            7.0512686,
            46.8923141
          ],
          [
            7.0513289,
            46.8923602
          ],
          [
            7.0527775,
            46.8934395
          ]
        ]
      },
      "id": "way/186807417"
    },
    {
      "type": "Feature",
      "properties": {
        "@id": "way/186807419",
        "electrified": "no",
        "gauge": "1435",
        "operator": "SBB",
        "railway": "rail",
        "service": "spur",
        "tracks": "1"
      },
      "geometry": {
        "type": "LineString",
        "coordinates": [
          [
            7.0491096,
            46.8904384
          ],
          [
            7.0492444,
            46.8905457
          ],
          [
            7.0493608,
            46.8906468
          ],
          [
            7.0495769,
            46.8908503
          ],
          [
            7.0496651,
            46.8909301
          ],
          [
            7.0497635,
            46.8910091
          ]
        ]
      },
      "id": "way/186807419"
    },
    {
      "type": "Feature",
      "properties": {
        "@id": "way/186807421",
        "electrified": "no",
        "gauge": "1435",
        "operator": "SBB",
        "railway": "rail",
        "service": "spur",
        "tracks": "1"
      },
      "geometry": {
        "type": "LineString",
        "coordinates": [
          [
            7.0526622,
            46.8932355
          ],
          [
            7.0525543,
            46.8931486
          ],
          [
            7.0524702,
            46.8930712
          ],
          [
            7.0523418,
            46.8929444
          ],
          [
            7.0521988,
            46.8928254
          ]
        ]
      },
      "id": "way/186807421"
    },
    {
      "type": "Feature",
      "properties": {
        "@id": "way/186807422",
        "electrified": "no",
        "gauge": "1435",
        "operator": "SBB",
        "railway": "rail",
        "service": "spur",
        "tracks": "1"
      },
      "geometry": {
        "type": "LineString",
        "coordinates": [
          [
            7.0488983,
            46.8894537
          ],
          [
            7.0488346,
            46.8894336
          ],
          [
            7.0481836,
            46.8892198
          ],
          [
            7.0480924,
            46.8891871
          ],
          [
            7.0480193,
            46.8891591
          ],
          [
            7.0479481,
            46.8891292
          ],
          [
            7.0477546,
            46.8890481
          ],
          [
            7.0476373,
            46.8890014
          ],
          [
            7.0475309,
            46.888961
          ]
        ]
      },
      "id": "way/186807422"
    },
    {
      "type": "Feature",
      "properties": {
        "@id": "way/186807423",
        "electrified": "contact_line",
        "frequency": "16.7",
        "gauge": "1435",
        "operator": "SBB",
        "railway": "rail",
        "service": "yard",
        "tracks": "1",
        "voltage": "15000"
      },
      "geometry": {
        "type": "LineString",
        "coordinates": [
          [
            7.0417351,
            46.8852168
          ],
          [
            7.0420545,
            46.8854043
          ],
          [
            7.042291,
            46.8855263
          ],
          [
            7.0425274,
            46.8856604
          ]
        ]
      },
      "id": "way/186807423"
    },
    {
      "type": "Feature",
      "properties": {
        "@id": "way/186807425",
        "electrified": "contact_line",
        "frequency": "16.7",
        "gauge": "1435",
        "operator": "SBB",
        "railway": "rail",
        "service": "yard",
        "tracks": "1",
        "voltage": "15000"
      },
      "geometry": {
        "type": "LineString",
        "coordinates": [
          [
            7.0449432,
            46.8872698
          ],
          [
            7.0428752,
            46.8858921
          ],
          [
            7.0425274,
            46.8856604
          ],
          [
            7.0412385,
            46.88481
          ]
        ]
      },
      "id": "way/186807425"
    },
    {
      "type": "Feature",
      "properties": {
        "@id": "way/186807426",
        "electrified": "no",
        "gauge": "1435",
        "operator": "SBB",
        "railway": "rail",
        "service": "spur",
        "tracks": "1"
      },
      "geometry": {
        "type": "LineString",
        "coordinates": [
          [
            7.052931,
            46.8933746
          ],
          [
            7.0528854,
            46.8933404
          ],
          [
            7.0521988,
            46.8928254
          ],
          [
            7.0504329,
            46.8915094
          ],
          [
            7.0497635,
            46.8910091
          ],
          [
            7.0492526,
            46.890629
          ],
          [
            7.0492335,
            46.8906144
          ]
        ]
      },
      "id": "way/186807426"
    },
    {
      "type": "Feature",
      "properties": {
        "@id": "way/186807427",
        "electrified": "no",
        "gauge": "1435",
        "operator": "SBB",
        "railway": "rail",
        "service": "spur",
        "tracks": "1"
      },
      "geometry": {
        "type": "LineString",
        "coordinates": [
          [
            7.0528892,
            46.8934038
          ],
          [
            7.0528259,
            46.8933569
          ],
          [
            7.0526622,
            46.8932355
          ],
          [
            7.0510046,
            46.8919986
          ],
          [
            7.0508625,
            46.8918915
          ],
          [
            7.0507607,
            46.8918059
          ],
          [
            7.0506674,
            46.891717
          ]
        ]
      },
      "id": "way/186807427"
    },
    {
      "type": "Feature",
      "properties": {
        "@id": "way/186807429",
        "electrified": "contact_line",
        "frequency": "16.7",
        "gauge": "1435",
        "operator": "SBB",
        "railway": "rail",
        "railway:etcs": "1",
        "ref": "251",
        "service": "siding",
        "tracks": "1",
        "voltage": "15000"
      },
      "geometry": {
        "type": "LineString",
        "coordinates": [
          [
            7.0394954,
            46.8837402
          ],
          [
            7.0396815,
            46.883868
          ],
          [
            7.0398721,
            46.8840099
          ],
          [
            7.0402731,
            46.8843089
          ],
          [
            7.0407149,
            46.8846
          ],
          [
            7.0414601,
            46.885091
          ],
          [
            7.0448604,
            46.8873344
          ],
          [
            7.0449136,
            46.8873726
          ],
          [
            7.045423,
            46.8877377
          ],
          [
            7.046158,
            46.8882332
          ]
        ]
      },
      "id": "way/186807429"
    },
    {
      "type": "Feature",
      "properties": {
        "@id": "way/186807430",
        "electrified": "no",
        "gauge": "1435",
        "operator": "SBB",
        "railway": "rail",
        "service": "spur",
        "tracks": "1"
      },
      "geometry": {
        "type": "LineString",
        "coordinates": [
          [
            7.0527247,
            46.8934729
          ],
          [
            7.0515954,
            46.8926309
          ],
          [
            7.0515038,
            46.8925581
          ],
          [
            7.0514593,
            46.892521
          ],
          [
            7.0514169,
            46.8924834
          ],
          [
            7.0513742,
            46.8924443
          ],
          [
            7.0513325,
            46.892404
          ],
          [
            7.0512922,
            46.8923636
          ],
          [
            7.0512534,
            46.8923222
          ],
          [
            7.0510813,
            46.8921461
          ],
          [
            7.0506674,
            46.891717
          ],
          [
            7.050625,
            46.8916738
          ],
          [
            7.0505349,
            46.8915927
          ],
          [
            7.0504329,
            46.8915094
          ]
        ]
      },
      "id": "way/186807430"
    },
    {
      "type": "Feature",
      "properties": {
        "@id": "way/186807431",
        "electrified": "no",
        "gauge": "1435",
        "operator": "SBB",
        "railway": "rail",
        "service": "spur",
        "tracks": "1"
      },
      "geometry": {
        "type": "LineString",
        "coordinates": [
          [
            7.0443492,
            46.8867381
          ],
          [
            7.0441612,
            46.8865988
          ],
          [
            7.0440231,
            46.8864777
          ],
          [
            7.0440048,
            46.8864574
          ],
          [
            7.0438828,
            46.8863225
          ],
          [
            7.0437902,
            46.8861885
          ],
          [
            7.0436658,
            46.8860393
          ],
          [
            7.0435248,
            46.8859182
          ],
          [
            7.0433737,
            46.8858085
          ],
          [
            7.0427503,
            46.8853917
          ]
        ]
      },
      "id": "way/186807431"
    },
    {
      "type": "Feature",
      "properties": {
        "@id": "way/186888752",
        "electrified": "contact_line",
        "frequency": "16.7",
        "gauge": "1435",
        "maxspeed": "110",
        "operator": "SBB",
        "passenger_lines": "1",
        "railway": "rail",
        "railway:etcs": "1",
        "ref": "251",
        "tracks": "1",
        "usage": "branch",
        "voltage": "15000"
      },
      "geometry": {
        "type": "LineString",
        "coordinates": [
          [
            7.0254013,
            46.8768764
          ],
          [
            7.0243535,
            46.8766722
          ],
          [
            7.0234634,
            46.8764677
          ],
          [
            7.0229588,
            46.8763142
          ],
          [
            7.0224884,
            46.8761482
          ],
          [
            7.0220372,
            46.8759532
          ],
          [
            7.0216567,
            46.8757701
          ],
          [
            7.020874,
            46.8753017
          ],
          [
            7.0201333,
            46.8747714
          ]
        ]
      },
      "id": "way/186888752"
    },
    {
      "type": "Feature",
      "properties": {
        "@id": "way/186888756",
        "electrified": "no",
        "gauge": "1435",
        "operator": "SBB",
        "railway": "rail",
        "railway:track_ref": "41",
        "service": "spur",
        "tracks": "1"
      },
      "geometry": {
        "type": "LineString",
        "coordinates": [
          [
            7.0196825,
            46.8745486
          ],
          [
            7.0199008,
            46.8747376
          ],
          [
            7.0200165,
            46.8748573
          ],
          [
            7.0201583,
            46.8749898
          ],
          [
            7.0205822,
            46.8752915
          ],
          [
            7.0210379,
            46.875606
          ]
        ]
      },
      "id": "way/186888756"
    },
    {
      "type": "Feature",
      "properties": {
        "@id": "way/186888758",
        "electrified": "no",
        "gauge": "1435",
        "operator": "SBB",
        "railway": "rail",
        "railway:track_ref": "41",
        "service": "spur",
        "tracks": "1"
      },
      "geometry": {
        "type": "LineString",
        "coordinates": [
          [
            7.0205402,
            46.8751916
          ],
          [
            7.0210915,
            46.8755644
          ],
          [
            7.0215544,
            46.8758245
          ],
          [
            7.0219812,
            46.8760312
          ],
          [
            7.0224254,
            46.8762211
          ],
          [
            7.0228927,
            46.8763863
          ],
          [
            7.0234208,
            46.8765524
          ],
          [
            7.0243091,
            46.8767532
          ],
          [
            7.0252496,
            46.8769362
          ]
        ]
      },
      "id": "way/186888758"
    },
    {
      "type": "Feature",
      "properties": {
        "@id": "way/332271273",
        "electrified": "contact_line",
        "frequency": "16.7",
        "gauge": "1435",
        "maxspeed": "125",
        "operator": "SBB",
        "passenger_lines": "1",
        "railway": "rail",
        "railway:etcs": "1",
        "ref": "251",
        "tracks": "1",
        "usage": "branch",
        "voltage": "15000"
      },
      "geometry": {
        "type": "LineString",
        "coordinates": [
          [
            7.0531133,
            46.8934292
          ],
          [
            7.0491096,
            46.8904384
          ],
          [
            7.046158,
            46.8882332
          ],
          [
            7.0457858,
            46.8879584
          ],
          [
            7.0449473,
            46.8873394
          ],
          [
            7.0448851,
            46.8872935
          ],
          [
            7.0417351,
            46.8852168
          ],
          [
            7.0407545,
            46.8845703
          ]
        ]
      },
      "id": "way/332271273"
    },
    {
      "type": "Feature",
      "properties": {
        "@id": "way/332271274",
        "bridge": "yes",
        "electrified": "contact_line",
        "frequency": "16.7",
        "gauge": "1435",
        "layer": "1",
        "maxspeed": "125",
        "operator": "SBB",
        "passenger_lines": "1",
        "railway": "rail",
        "railway:etcs": "1",
        "ref": "251",
        "tracks": "1",
        "usage": "branch",
        "voltage": "15000"
      },
      "geometry": {
        "type": "LineString",
        "coordinates": [
          [
            7.0583857,
            46.8973664
          ],
          [
            7.0582985,
            46.8973014
          ]
        ]
      },
      "id": "way/332271274"
    },
    {
      "type": "Feature",
      "properties": {
        "@id": "way/580257927",
        "bridge": "yes",
        "bridge:start_date": "1997",
        "electrified": "contact_line",
        "frequency": "16.7",
        "gauge": "1435",
        "layer": "1",
        "maxspeed": "110",
        "operator": "SBB",
        "passenger_lines": "1",
        "railway": "rail",
        "railway:etcs": "1",
        "ref": "251",
        "tracks": "1",
        "usage": "branch",
        "voltage": "15000"
      },
      "geometry": {
        "type": "LineString",
        "coordinates": [
          [
            7.0254513,
            46.8768867
          ],
          [
            7.0254013,
            46.8768764
          ]
        ]
      },
      "id": "way/580257927"
    },
    {
      "type": "Feature",
      "properties": {
        "@id": "way/580257928",
        "electrified": "contact_line",
        "frequency": "16.7",
        "gauge": "1435",
        "maxspeed": "110",
        "operator": "SBB",
        "passenger_lines": "1",
        "railway": "rail",
        "railway:etcs": "1",
        "ref": "251",
        "tracks": "1",
        "usage": "branch",
        "voltage": "15000"
      },
      "geometry": {
        "type": "LineString",
        "coordinates": [
          [
            7.0317548,
            46.8786523
          ],
          [
            7.0311972,
            46.8783399
          ],
          [
            7.0301786,
            46.877917
          ],
          [
            7.029612,
            46.8777383
          ],
          [
            7.0290276,
            46.8775915
          ],
          [
            7.0254513,
            46.8768867
          ]
        ]
      },
      "id": "way/580257928"
    },
    {
      "type": "Feature",
      "properties": {
        "@id": "way/850640914",
        "bridge": "yes",
        "electrified": "contact_line",
        "frequency": "16.7",
        "gauge": "1435",
        "layer": "1",
        "maxspeed": "125",
        "operator": "SBB",
        "passenger_lines": "1",
        "railway": "rail",
        "railway:etcs": "1",
        "ref": "251",
        "tracks": "1",
        "usage": "branch",
        "voltage": "15000"
      },
      "geometry": {
        "type": "LineString",
        "coordinates": [
          [
            7.0532671,
            46.8935441
          ],
          [
            7.0531133,
            46.8934292
          ]
        ]
      },
      "id": "way/850640914"
    },
    {
      "type": "Feature",
      "properties": {
        "@id": "way/850640915",
        "electrified": "contact_line",
        "frequency": "16.7",
        "gauge": "1435",
        "maxspeed": "125",
        "operator": "SBB",
        "passenger_lines": "1",
        "railway": "rail",
        "railway:etcs": "1",
        "ref": "251",
        "tracks": "1",
        "usage": "branch",
        "voltage": "15000"
      },
      "geometry": {
        "type": "LineString",
        "coordinates": [
          [
            7.0582985,
            46.8973014
          ],
          [
            7.0532671,
            46.8935441
          ]
        ]
      },
      "id": "way/850640915"
    },
    {
      "type": "Feature",
      "properties": {
        "@id": "way/1301672474",
        "electrified": "no",
        "gauge": "1435",
        "operator": "SBB",
        "railway": "rail",
        "service": "spur",
        "tracks": "1"
      },
      "geometry": {
        "type": "LineString",
        "coordinates": [
          [
            7.045423,
            46.8877377
          ],
          [
            7.0462198,
            46.8883653
          ]
        ]
      },
      "id": "way/1301672474"
    },
    {
      "type": "Feature",
      "properties": {
        "@id": "way/1346424017",
        "electrified": "contact_line",
        "frequency": "16.7",
        "gauge": "1435",
        "maxspeed": "125",
        "operator": "SBB",
        "passenger_lines": "1",
        "railway": "rail",
        "railway:etcs": "1",
        "ref": "251",
        "tracks": "1",
        "usage": "branch",
        "voltage": "15000"
      },
      "geometry": {
        "type": "LineString",
        "coordinates": [
          [
            7.0407545,
            46.8845703
          ],
          [
            7.0394954,
            46.8837402
          ],
          [
            7.0394071,
            46.8836783
          ],
          [
            7.0317548,
            46.8786523
          ]
        ]
      },
      "id": "way/1346424017"
    }
  ]
}