{
  "type": "FeatureCollection",
  "generator": "overpass-turbo (CH)",
  "copyright": "The data included in this document is from www.openstreetmap.org. The data is made available under ODbL.",
  "timestamp": "112006",
  "features": [
    {
      "type": "Feature",
      "properties": {
        "@id": "way/140658968",
        "natural": "water",
        "water": "pond"
      },
      "geometry": {
        "type": "Polygon",
        "coordinates": [
          [
            [
              7.043704,
              46.8931535
            ],
            [
              7.0437442,
              46.8931427
            ],
            [
              7.0438718,
              46.8931083
            ],
            [
              7.0440955,
              46.8931153
            ],
            [
              7.0442226,
              46.8931639
            ],
            [
              7.044234,
              46.8931707
            ],
            [
              7.0450666,
              46.8936677
            ],
            [
              7.0451022,
              46.8937615
            ],
            [
              7.0450213,
              46.8938501
            ],
            [
              7.0449188,
              46.8938875
            ],
            [
              7.0448241,
              46.8938965
            ],
            [
              7.0445605,
              46.8939144
            ],
            [
              7.0443829,
              46.8939362
            ],
            [
              7.0439969,
              46.893976
            ],
            [
              7.0437391,
              46.893963
            ],
            [
              7.0435591,
              46.893934
            ],
            [
              7.043399,
              46.8938449
            ],
            [
              7.0432871,
              46.8937233
            ],
            [
              7.0432668,
              46.8936121
            ],
            [
              7.0433176,
              46.893421
            ],
            [
              7.0434295,
              46.8933168
            ],
            [
              7.043704,
              46.8931535
            ]
          ]
        ]
      },
      "id": "way/140658968"
    },
    {
      "type": "Feature",
      "properties": {
        "@id": "way/140659034",
        "natural": "water"
      },
      "geometry": {
        "type": "Polygon",
        "coordinates": [
          [
            [
              7.0459779,
              46.8968984
            ],
            [
              7.0459403,
              46.8971071
            ],
            [
              7.0459556,
              46.8971384
            ],
            [
              7.0460522,
              46.8971836
            ],
            [
              7.0461081,
              46.8971801
            ],
            [
              7.0462352,
              46.8972114
            ],
            [
              7.046408,
              46.897326
            ],
            [
              7.0464894,
              46.8974511
            ],
            [
              7.0465148,
              46.8976039
            ],
            [
              7.0465097,
              46.8976665
            ],
            [
              7.0464335,
              46.8977742
            ],
            [
              7.0463013,
              46.8978645
            ],
            [
              7.0461284,
              46.8979062
            ],
            [
              7.0459454,
              46.8979096
            ],
            [
              7.0459098,
              46.8979062
            ],
            [
              7.0458488,
              46.8978679
            ],
            [
              7.045803,
              46.8977985
            ],
            [
              7.0457827,
              46.897729
            ],
            [
              7.0458132,
              46.8976178
            ],
            [
              7.0458945,
              46.897524
            ],
            [
              7.0459352,
              46.8974268
            ],
            [
              7.0458742,
              46.8972913
            ],
            [
              7.0458896,
              46.8968857
            ],
            [
              7.0457776,
              46.8968744
            ],
            [
              7.0457217,
              46.8968223
            ],
            [
              7.045681,
              46.8966937
            ],
            [
              7.0457064,
              46.8966173
            ],
            [
              7.0457674,
              46.8965652
            ],
            [
              7.0458335,
              46.8964367
            ],
            [
              7.0458335,
              46.8963081
            ],
            [
              7.0457522,
              46.8961622
            ],
            [
              7.0456149,
              46.8960753
            ],
            [
              7.0455793,
              46.895992
            ],
            [
              7.0455946,
              46.8959364
            ],
            [
              7.0456556,
              46.8959086
            ],
            [
              7.0457674,
              46.8959086
            ],
            [
              7.0458437,
              46.8959086
            ],
            [
              7.0459149,
              46.8959815
            ],
            [
              7.0460064,
              46.8960892
            ],
            [
              7.0461182,
              46.8961796
            ],
            [
              7.0463318,
              46.8962525
            ],
            [
              7.0465707,
              46.8962907
            ],
            [
              7.0466521,
              46.8963255
            ],
            [
              7.0467283,
              46.8963845
            ],
            [
              7.0467741,
              46.896461
            ],
            [
              7.0467893,
              46.8965652
            ],
            [
              7.0467538,
              46.8966764
            ],
            [
              7.0466826,
              46.8967493
            ],
            [
              7.0465504,
              46.896798
            ],
            [
              7.0463725,
              46.8968014
            ],
            [
              7.0462148,
              46.8968292
            ],
            [
              7.0461021,
              46.8968594
            ],
            [
              7.0459779,
              46.8968984
            ]
          ]
        ]
      },
      "id": "way/140659034"
    },
    {
      "type": "Feature",
      "properties": {
        "@id": "way/332371417",
        "natural": "water",
        "water": "reservoir"
      },
      "geometry": {
        "type": "Polygon",
        "coordinates": [
          [
            [
              7.0451673,
              46.8943807
            ],
            [
              7.0451802,
              46.8944043
            ],
            [
              7.0451798,
              46.8944295
            ],
            [
              7.0451661,
              46.8944529
            ],
            [
              7.045141,
              46.8944713
            ],
            [
              7.0451078,
              46.8944823
            ],
            [
              7.0450711,
              46.8944843
            ],
            [
              7.0450357,
              46.8944772
            ],
            [
              7.0450066,
              46.8944618
            ],
            [
              7.0449875,
              46.8944402
            ],
            [
              7.0449811,
              46.8944154
            ],
            [
              7.0449883,
              46.8943907
            ],
            [
              7.0450081,
              46.8943694
            ],
            [
              7.0450377,
              46.8943545
            ],
            [
              7.0450733,
              46.8943478
            ],
            [
              7.0451099,
              46.8943504
            ],
            [
              7.0451427,
              46.8943619
            ],
            [
              7.0451673,
              46.8943807
            ]
          ]
        ]
      },
      "id": "way/332371417"
    },
    {
      "type": "Feature",
      "properties": {
        "@id": "way/332371418",
        "natural": "water",
        "water": "reservoir"
      },
      "geometry": {
        "type": "Polygon",
        "coordinates": [
          [
            [
              7.045203,
              46.8947595
            ],
            [
              7.0452164,
              46.8947839
            ],
            [
              7.045216,
              46.8948099
            ],
            [
              7.0452018,
              46.894834
            ],
            [
              7.0451759,
              46.894853
            ],
            [
              7.0451417,
              46.8948644
            ],
            [
              7.0451037,
              46.8948665
            ],
            [
              7.0450673,
              46.8948591
            ],
            [
              7.0450372,
              46.8948432
            ],
            [
              7.0450175,
              46.8948209
            ],
            [
              7.0450109,
              46.8947953
            ],
            [
              7.0450183,
              46.8947698
            ],
            [
              7.0450387,
              46.8947479
            ],
            [
              7.0450693,
              46.8947324
            ],
            [
              7.045106,
              46.8947256
            ],
            [
              7.0451438,
              46.8947283
            ],
            [
              7.0451777,
              46.8947401
            ],
            [
              7.045203,
              46.8947595
            ]
          ]
        ]
      },
      "id": "way/332371418"
    },
    {
      "type": "Feature",
      "properties": {
        "@id": "way/332371419",
        "natural": "water",
        "water": "reservoir"
      },
      "geometry": {
        "type": "Polygon",
        "coordinates": [
          [
            [
              7.0451988,
              46.8946082
            ],
            [
              7.0452114,
              46.8946312
            ],
            [
              7.045211,
              46.8946557
            ],
            [
              7.0451976,
              46.8946785
            ],
            [
              7.0451732,
              46.8946964
            ],
            [
              7.0451408,
              46.8947071
            ],
            [
              7.0451051,
              46.8947091
            ],
            [
              7.0450707,
              46.8947021
            ],
            [
              7.0450422,
              46.8946871
            ],
            [
              7.0450237,
              46.8946662
            ],
            [
              7.0450175,
              46.894642
            ],
            [
              7.0450245,
              46.8946179
            ],
            [
              7.0450437,
              46.8945972
            ],
            [
              7.0450726,
              46.8945827
            ],
            [
              7.0451072,
              46.8945762
            ],
            [
              7.0451429,
              46.8945787
            ],
            [
              7.0451749,
              46.8945899
            ],
            [
              7.0451988,
              46.8946082
            ]
          ]
        ]
      },
      "id": "way/332371419"
    },
    {
      "type": "Feature",
      "properties": {
        "@id": "way/442444055",
        "barrier": "wall",
        "natural": "water"
      },
      "geometry": {
        "type": "Polygon",
        "coordinates": [
          [
            [
              7.0404724,
              46.8800656
            ],
            [
              7.0404682,
              46.8800509
            ],
            [
              7.0404817,
              46.8800366
            ],
            [
              7.0405058,
              46.8800337
            ],
            [
              7.0405274,
              46.8800434
            ],
            [
              7.0405312,
              46.8800586
            ],
            [
              7.040519,
              46.8800712
            ],
            [
              7.0404944,
              46.8800746
            ],
            [
              7.0404724,
              46.8800656
            ]
          ]
        ]
      },
      "id": "way/442444055"
    },
    {
      "type": "Feature",
      "properties": {
        "@id": "way/442921383",
        "barrier": "wall",
        "natural": "water"
      },
      "geometry": {
        "type": "Polygon",
        "coordinates": [
          [
            [
              7.0385205,
              46.8785001
            ],
            [
              7.0385258,
              46.8784958
            ],
            [
              7.0385333,
              46.8784935
            ],
            [
              7.0385415,
              46.8784933
            ],
            [
              7.038549,
              46.8784955
            ],
            [
              7.0385546,
              46.8784996
            ],
            [
              7.0385573,
              46.8785048
            ],
            [
              7.0385567,
              46.8785103
            ],
            [
              7.0385529,
              46.8785152
            ],
            [
              7.0385467,
              46.8785186
            ],
            [
              7.0385389,
              46.87852
            ],
            [
              7.038532,
              46.8785195
            ],
            [
              7.0385258,
              46.8785173
            ],
            [
              7.0385211,
              46.8785138
            ],
            [
              7.0385184,
              46.8785094
            ],
            [
              7.0385182,
              46.8785046
            ],
            [
              7.0385205,
              46.8785001
            ]
          ]
        ]
      },
      "id": "way/442921383"
    },
    {
      "type": "Feature",
      "properties": {
        "@id": "way/919614912",
        "natural": "water",
        "water": "pond"
      },
      "geometry": {
        "type": "Polygon",
        "coordinates": [
          [
            [
              7.0335168,
              46.8764507
            ],
            [
              7.0335195,
              46.8764278
            ],
            [
              7.0335222,
              46.8764047
            ],
            [
              7.0335434,
              46.8763987
            ],
            [
              7.0335859,
              46.876383
            ],
            [
              7.0336159,
              46.8763612
            ],
            [
              7.0336708,
              46.8763213
            ],
            [
              7.0337186,
              46.8763092
            ],
            [
              7.0337787,
              46.8763055
            ],
            [
              7.0338389,
              46.8763213
            ],
            [
              7.0338637,
              46.8763539
            ],
            [
              7.0338655,
              46.8763878
            ],
            [
              7.0337805,
              46.8764483
            ],
            [
              7.0337699,
              46.8764701
            ],
            [
              7.033777,
              46.8764809
            ],
            [
              7.0339026,
              46.8765282
            ],
            [
              7.0339185,
              46.8765342
            ],
            [
              7.0339226,
              46.8765437
            ],
            [
              7.0338879,
              46.8765785
            ],
            [
              7.0338552,
              46.8765879
            ],
            [
              7.0338339,
              46.8765876
            ],
            [
              7.0337888,
              46.8765761
            ],
            [
              7.0335558,
              46.8764701
            ],
            [
              7.0335168,
              46.8764507
            ]
          ]
        ]
      },
      "id": "way/919614912"
    },
    {
      "type": "Feature",
      "properties": {
        "@id": "way/1155642806",
        "barrier": "wall",
        "natural": "water"
      },
      "geometry": {
        "type": "Polygon",
        "coordinates": [
          [
            [
              7.0421479,
              46.8767664
            ],
            [
              7.0421433,
              46.876733
            ],
            [
              7.0421608,
              46.8767319
            ],
            [
              7.0421654,
              46.8767652
            ],
            [
              7.0421479,
              46.8767664
            ]
          ]
        ]
      },
      "id": "way/1155642806"
    },
    {
      "type": "Feature",
      "properties": {
        "@id": "way/1158834730",
        "barrier": "retaining_wall",
        "natural": "water"
      },
      "geometry": {
        "type": "Polygon",
        "coordinates": [
          [
            [
              7.0393265,
              46.8792444
            ],
            [
              7.0393682,
              46.8792728
            ],
            [
              7.039327,
              46.8793011
            ],
            [
              7.0392853,
              46.8792728
            ],
            [
              7.0393265,
              46.8792444
            ]
          ]
        ]
      },
      "id": "way/1158834730"
    },
    {
      "type": "Feature",
      "properties": {
        "@id": "way/1352442370",
        "natural": "water"
      },
      "geometry": {
        "type": "Polygon",
        "coordinates": [
          [
            [
              7.0279509,
              46.8826579
            ],
            [
              7.0279542,
              46.8826281
            ],
            [
              7.0279817,
              46.8826103
            ],
            [
              7.02803,
              46.8826061
            ],
            [
              7.0281433,
              46.8826341
            ],
            [
              7.0281963,
              46.8826483
            ],
            [
              7.0282412,
              46.8826822
            ],
            [
              7.0283546,
              46.8827959
            ],
            [
              7.0284578,
              46.8828765
            ],
            [
              7.0284759,
              46.8829118
            ],
            [
              7.0284685,
              46.882937
            ],
            [
              7.0284357,
              46.882948
            ],
            [
              7.0283941,
              46.8829425
            ],
            [
              7.0283432,
              46.8829228
            ],
            [
              7.0282808,
              46.882882
            ],
            [
              7.0282218,
              46.8828449
            ],
            [
              7.0280924,
              46.8827808
            ],
            [
              7.0280521,
              46.8827551
            ],
            [
              7.0279509,
              46.8826579
            ]
          ]
        ]
      },
      "id": "way/1352442370"
    },
    {
      "type": "Feature",
      "properties": {
        "@id": "way/825378467",
        "name": "Le Bey",
        "waterway": "canal"
      },
      "geometry": {
        "type": "LineString",
        "coordinates": [
          [
            7.0256339,
            46.8863887
          ],
          [
            7.0270633,
            46.8883291
          ],
          [
            7.0305144,
            46.8929959
          ],
          [
            7.0316795,
            46.8944176
          ],
          [
            7.0347231,
            46.8980549
          ],
          [
            7.0352437,
            46.898594
          ],
          [
            7.0352512,
            46.8985996
          ]
        ]
      },
      "id": "way/825378467"
    },
    {
      "type": "Feature",
      "properties": {
        "@id": "way/825378468",
        "layer": "-1",
        "name": "Le Bey",
        "tunnel": "culvert",
        "waterway": "canal"
      },
      "geometry": {
        "type": "LineString",
        "coordinates": [
          [
            7.0352512,
            46.8985996
          ],
          [
            7.0353417,
            46.8986678
          ]
        ]
      },
      "id": "way/825378468"
    },
    {
      "type": "Feature",
      "properties": {
        "@id": "way/825378469",
        "name": "Le Bey",
        "waterway": "canal"
      },
      "geometry": {
        "type": "LineString",
        "coordinates": [
          [
            7.0353417,
            46.8986678
          ],
          [
            7.0353656,
            46.8986858
          ],
          [
            7.0375831,
            46.9002311
          ],
          [
            7.0428561,
            46.9038255
          ],
          [
            7.0431513,
            46.9040915
          ],
          [
            7.0436315,
            46.9047691
          ],
          [
            7.0449819,
            46.9068391
          ]
        ]
      },
      "id": "way/825378469"
    }
  ]
}